DATASET_EN,DATASET_TC,NAME_EN,ADDRESS_EN,NAME_TC,ADDRESS_TC,NSEARCH01_EN,NSEARCH01_TC,NSEARCH02_EN,NSEARCH02_TC,NSEARCH03_EN,NSEARCH03_TC,NSEARCH04_EN,NSEARCH04_TC,NSEARCH05_EN,NSEARCH05_TC,NORTHING,EASTING,LATITUDE,LONGITUDE,LASTUPDATE,GeometryEasting,GeometryNorthing
Higher Education Institutions,高等教育院校,Saint Francis University,"2 Chui Ling Lane, Tseung Kwan O, New Territories.",聖方濟各大學,新界將軍澳翠嶺里2號,N.A.,N.A.,N.A.,N.A.,N.A.,N.A.,N.A.,N.A.,N.A.,N.A.,818285.77314269,843915.49374266,22.30350496,114.25109227,2024-02-22 11:05:49,843915.4937000005,818285.7730999999
Higher Education Institutions,高等教育院校,Hong Kong College of Technology (Jockey Club Undergraduate Campus),"2 On Shing Street, Ma On Shan, Shatin, N.T.",香港專業進修學校 (賽馬會本科校園),新界沙田馬鞍山鞍誠街2號,,,,,,,,,,,831503,841818,22.42287172,114.23078233,2024-02-19 16:49:20,841818,831503
Higher Education Institutions,高等教育院校,The Hong Kong Polytechnic University,"11 Yuk Choi Road , Hung Hom, Kowloon",香港理工大學,九龍紅磡育才道 11 號,,,,,,,,,,,818355,836556,22.30414709,114.17966937,2024-02-19 16:49:07,836556,818355
Higher Education Institutions,高等教育院校,Gratia Christian College,"5 Wai Chi Street, Shek Kip Mei, Kowloon, Hong Kong",宏恩基督教學院,九龍石硤尾偉智街5號,,,,,,,,,,,821536,835376,22.33287321,114.1682158,2024-02-19 16:48:58,835376,821536
Higher Education Institutions,高等教育院校,HKCT Institute of Higher Education (Jockey Club Undergraduate Campus),"2 On Shing Street, Ma On Shan, N.T.",港專學院 (賽馬會本科校園),新界沙田馬鞍山鞍誠街2號,,,,,,,,,,,831503,841818,22.42287172,114.23078233,2024-02-19 16:48:41,841818,831503
Higher Education Institutions,高等教育院校,HKU SPACE Community College (CITA Learning Centre),"63 Tai Yip Street, Kowloon Bay, Kowloon ",香港大學附屬學院 (製衣業訓練局教學中心),九龍九龍灣大業街63號 ,,,,,,,,,,,820123,839975,22.32010922,114.21285456,2024-02-19 16:48:28,839975,820123
Higher Education Institutions,高等教育院校,Yew Chung College of Early Childhood Education,"2 Tin Wan Hill Road, Tin Wan, Aberdeen, Hong Kong",耀中幼教學院,香港香港仔田灣田灣山道2號,,,,,,,,,,,812375,833259,22.25014127,114.14768345,2024-02-19 16:48:19,833259,812375
Higher Education Institutions,高等教育院校,Hong Kong Chu Hai College,"80 Castle Peak Road, Castle Peak Bay, Tuen Mun, N.T",香港珠海學院,新界屯門青山公路青山灣段 80 號,,,,,,,,,,,826293,816720,22.37572052,113.9870661,2024-02-19 16:48:00,816720,826293
Higher Education Institutions,高等教育院校,City University of Hong Kong - School of Continuing and Professional Education,"2410, 2/F, Li Dak Sum Yip Yio Chin Academic Building (LI), City University of Hong Kong, Tat Chee Avenue, Kowloon",香港城巿大學專業進修學院,九龍塘達之路香港城市大學李達三葉耀珍學術樓2樓2410室,,,,,,,,,,,822065,835714,22.33765053,114.17149655,2024-02-19 16:47:44,835714,822065
Higher Education Institutions,高等教育院校,Hong Kong Art School (a division of Hong Kong Arts Centre) (Main Campus),"10/F, Hong Kong Arts Centre, 2 Harbour Road, Wanchai, Hong Kong",香港藝術學院 (香港藝術中心附屬機構) (本部),香港灣仔港灣道 2 號香港藝術中心 10 樓,,,,,,,,,,,815716,835644,22.28031519,114.1708195,2024-02-19 16:47:27,835644,815716
Higher Education Institutions,高等教育院校,Caritas Institute of Community Education (Fanling),"3/F, Carpark No. 1, Cheung Wah Estate, Fanling, New Territories.",明愛社區書院 (粉嶺),新界粉嶺祥華村一號停車場三樓,,,,,,,,,,,839292,832720,22.49321514,114.14239477,2024-02-19 16:47:17,832720,839292
Higher Education Institutions,高等教育院校,Caritas Institute of Community Education (Tsuen Wan),"146 Chung On Street, Tsuen Wan, N.T.",明愛社區書院 (荃灣),新界荃灣眾安街146號,,,,,,,,,,,825432,830006,22.3680451,114.11607451,2024-02-19 16:47:07,830006,825432
Higher Education Institutions,高等教育院校,Caritas Institute of Community Education (Yaumati),"4 Cliff Road, Yaumati, Kowloon",明愛社區書院 (油麻地),九龍油麻地石壁道4號,,,,,,,,,,,819125,835750,22.31110061,114.17184696,2024-02-19 16:46:56,835750,819125
Higher Education Institutions,高等教育院校,Caritas Institute of Community Education (Tuen Mun),"Units 21-34, G/F, Wu Yuet House, Wu King Estate, Tuen Mun, N.T.",明愛社區書院 (屯門),新界屯門湖景邨湖月樓地下21-34室,,,,,,,,,,,826414,814455,22.37678592,113.96507173,2024-02-19 16:46:46,814455,826414
Higher Education Institutions,高等教育院校,Caritas Institute of Community Education (Yuen Long),"G/F, Shop 1, Dip Shui House, Shui Pin Wai Estate, Yuen Long, N.T.",明愛社區書院 (元朗),新界元朗水邊圍邨疊水樓地下1號,,,,,,,,,,,834033,820122,22.44565163,114.0200205,2024-02-19 16:46:36,820122,834033
Higher Education Institutions,高等教育院校,Caritas Institute of Community Education,"11 Caine Road, Central, Hong Kong (Main Administration Office)",明愛社區書院,中環堅道11號 (總行政辦事處),,,,,,,,,,,815649,833941,22.27970868,114.15429493,2024-02-19 16:46:27,833941,815649
Higher Education Institutions,高等教育院校,Caritas Institute of Community Education (Tin Hau),"1/F, SUP Tower, 75 – 83 King’s Road, North Point, Hong Kong",明愛社區書院 (天后),香港英皇道75至83號聯合出版大廈一樓,,,,,,,,,,,816366,837905,22.28618443,114.19275926,2024-02-19 16:46:11,837905,816366
Higher Education Institutions,高等教育院校,Caritas Institute of Community Education (Hung Hom),"5 Dyer Avenue, Hung Hom, Kowloon",明愛社區書院 (紅磡),九龍紅磡戴亞街5號,,,,,,,,,,,818729,837452,22.30752415,114.18836525,2024-02-19 16:46:02,837452,818729
Higher Education Institutions,高等教育院校,Hong Kong Institute of Technology (Shatin Learning Centre),"Shop 605, 6/F., Jubilee Square, 2-18 Lok King Street, Shatin, New Territories",香港科技專上書院 (沙田教學中心),新界沙田火炭樂景街2-18號銀禧薈6樓605室,,,,,,,,,,,828570,838624,22.39639266,114.19975421,2024-02-19 16:45:52,838624,828570
Higher Education Institutions,高等教育院校,Hong Kong Metropolitan University (The Jockey Club Campus),"81 Chung Hau Street, Ho Man Tin, Kowloon",香港都會大學 (賽馬會校園),九龍何文田忠孝街81號,,,,,,,,,,,819631,836403,22.31567016,114.17818462,2024-02-19 16:45:43,836403,819631
Higher Education Institutions,高等教育院校,Hong Kong Institute of Technology (Fanling Learning Centre),"Shop R40, G/F., Wah Sum Shopping Centre, Wah Sum Estate, 18 Yat Ming Road, Fanling, New Territories",香港科技專上書院 (粉嶺教學中心),新界粉嶺一嗚路18號華心邨華心商場地下R40號舖,,,,,,,,,,,838568,832689,22.48667706,114.14209514,2024-02-19 16:45:31,832689,838568
Higher Education Institutions,高等教育院校,"School of Continuing and Professional Studies, The Chinese University of Hong Kong (Tseung Kwan O Learning Centre)","Tsui Lam Estate, Tseung Kwan O",香港中文大學專業進修學院 (將軍澳教學中心),將軍澳翠林邨,,,,,,,,,,,820447,843586,22.32302355,114.24790446,2024-02-19 16:45:11,843586,820447
Higher Education Institutions,高等教育院校,HKU School of Professional and Continuing Education (Admiralty Learning Centre),"2/F & 3/F, Admiralty Centre, 18 Harcourt Road, Admiralty, Hong Kong",香港大學專業進修學院 (金鐘教學中心),香港金鐘夏愨道18號海富中心2樓及3樓,,,,,,,,,,,815608,835062,22.27933957,114.16517228,2024-02-19 16:45:01,835062,815608
Higher Education Institutions,高等教育院校,HKU SPACE Po Leung Kuk Stanley Ho Community College,"66 Leighton Road, Causeway Bay, Hong Kong",香港大學專業進修學院保良局何鴻燊社區書院,香港銅鑼灣禮頓道66號,,,,,,,,,,,815357,837066,22.27707311,114.18461737,2024-02-19 16:44:52,837066,815357
Higher Education Institutions,高等教育院校,HKU SPACE Community College (United Learning Centre),"United Centre, 95 Queensway, Hong Kong",香港大學附屬學院 (統一教學中心),香港金鐘道95號統一中心,,,,,,,,,,,815501,835071,22.2783733,114.16525969,2024-02-19 16:44:37,835071,815501
Higher Education Institutions,高等教育院校,HKU School of Professional and Continuing Education (United Learning Centre),"6/F, United Centre, 95 Queensway, Admiralty, Hong Kong",香港大學專業進修學院 (統一教學中心),香港金鐘道95號統一中心6樓,,,,,,,,,,,815501,835071,22.2783733,114.16525969,2024-02-19 16:44:26,835071,815501
Higher Education Institutions,高等教育院校,City University of Hong Kong,"Tat Chee Avenue, Kowloon",香港城市大學,九龍達之路,,,,,,,,,,,821912,835879,22.33626889,114.17309828,2024-02-19 16:44:11,835879,821912
Higher Education Institutions,高等教育院校,Hong Kong Academy for Performing Arts,"1 Gloucester Road,Wanchai",香港演藝學院,香港灣仔告士打道一號,,,,,,,,,,,815664,835536,22.27984555,114.16977157,2024-02-19 16:44:00,835536,815664
Higher Education Institutions,高等教育院校,The Chinese University of Hong Kong,"Inter-University Hall, The Chinese University of Hong Kong, Shatin, NT",香港中文大學,新界沙田香港中文大學博文苑,,,,,,,,,,,830423,839633,22.41312449,114.20955683,2024-02-19 16:43:50,839633,830423
Higher Education Institutions,高等教育院校,Hong Kong Baptist University,"5/F, David C. Lam Building, Shaw Campus, Hong Kong Baptist University,34 Renfrew Road, Kowloon Tong",香港浸會大學,九龍塘聯福道三十四號香港浸會大學逸夫校園思齊樓五字樓,,,,,,,,,,,822020,836773,22.33724416,114.1817765,2024-02-19 16:43:40,836773,822020
Higher Education Institutions,高等教育院校,The Hong Kong University of Science and Technology,"Clear Water Bay, Kowloon",香港科技大學,香港九龍清水灣,,,,,,,,,,,822013,845199,22.33715781,114.26356932,2024-02-19 16:43:29,845199,822013
Higher Education Institutions,高等教育院校,The Education University of Hong Kong (North Point Study Centre),"19 Cheung Hong St, North Point, Hong Kong Island, Hong Kong",香港教育大學 (北角教育中心),香港北角長康街十九號,,,,,,,,,,,816697.40650086,838227.95350371,22.2891769,114.1958935,2024-01-08 10:24:41,838227.9534999998,816697.4065000005
Higher Education Institutions,高等教育院校,The Education University of Hong Kong (Tseung Kwan O Study Centre Office),"1 King Yin Lane, Tseung Kwan O, New Territories, Hong Kong",香港教育大學 (將軍澳教學中心),香港九龍將軍澳敬賢里1號,N.A.,N.A.,N.A.,N.A.,N.A.,N.A.,N.A.,N.A.,N.A.,N.A.,820817.1,844832.6,22.32636031,114.26000621,2023-08-21 10:32:13,844832.5999999996,820817.0999999996
Higher Education Institutions,高等教育院校,Lingnan University,"8 Castle Peak Road, Tuen Mun, NT.",嶺南大學,新界屯門青山公路八號,,,,,,,,,,,830130.2,816326.9,22.41036798,113.9832012,2023-07-26 10:01:08,816326.9000000004,830130.1999999993
Higher Education Institutions,高等教育院校,Hong Kong Metropolitan University - Li Ka Shing School of Professional and Continuing Education (Kwai Hing Campus),"8/F-11/F, Tower 2, Kowloon Commerce Centre ,51-53 Kwai Cheong Road,Kwai Chung, N.T.",香港都會大學 - 李嘉誠專業進修學院 (葵興校園),新界葵涌葵昌路51-53號九龍貿易中心第2座8-11樓,N.A.,N.A.,N.A.,N.A.,N.A.,N.A.,N.A.,N.A.,N.A.,N.A.,824786.2,831733.8,22.3622189,114.13285213,2023-07-26 09:55:38,831733.7999999998,824786.1999999993
Higher Education Institutions,高等教育院校,The Hong Kong Polytechnic University - Hong Kong Community College (Hung Hom Bay Campus),"8 Hung Lok Road, Hung Hom, Kowloon",香港理工大學 - 香港專上學院 (紅磡灣校園),九龍紅磡紅樂道8號,N.A.,N.A.,N.A.,N.A.,N.A.,N.A.,N.A.,N.A.,N.A.,N.A.,818298.4,837065.4,22.30363609,114.18461303,2023-07-26 09:53:37,837065.4000000004,818298.4000000004
Higher Education Institutions,高等教育院校,HKU SPACE Community College (Kowloon East Campus),"Lee Shiu Building, 28 Wang Hoi Road, Kowloon Bay, Hong Kong",香港大學附屬學院 (九龍東分校),香港九龍灣宏開道28號,N.A.,N.A.,N.A.,N.A.,N.A.,N.A.,N.A.,N.A.,N.A.,N.A.,820586,839780.9,22.32429108,114.21097165,2023-07-26 09:41:33,839780.9000000004,820586
Higher Education Institutions,高等教育院校,Vocational Training Council,"VTC Tower, 27 Wood Road, Wan Chai, Hong Kong",職業訓練局,香港灣仔活道 27 號職業訓練局大樓,N.A.,N.A.,N.A.,N.A.,N.A.,N.A.,N.A.,N.A.,N.A.,N.A.,815295.5,836330.8,22.2765182,114.17748369,2023-07-25 09:37:50,836330.7999999998,815295.5
Higher Education Institutions,高等教育院校,Hong Kong Design Institute,"3 King Ling Road, Tseung Kwan O, New Territories",香港知專設計學院,新界將軍澳景嶺路3號,N.A.,N.A.,N.A.,N.A.,N.A.,N.A.,N.A.,N.A.,N.A.,N.A.,818556.8,844167.7,22.30595165,114.25354124,2023-07-25 09:35:49,844167.7000000002,818556.8000000007
Higher Education Institutions,高等教育院校,The Hong Kong Polytechnic University - School of Professional Education and Executive Development (West Kowloon Campus),"9 Hoi Ting Road, Yau Ma Tei, Kowloon",香港理工大學 - 專業進修學院 (西九龍校園),九龍油麻地海庭道9號,N.A.,N.A.,N.A.,N.A.,N.A.,N.A.,N.A.,N.A.,N.A.,N.A.,819294.39743331,835062.75966293,22.31263003,114.16517689,2023-07-25 09:33:18,835062.7597000003,819294.3973999992
Higher Education Institutions,高等教育院校,The Hong Kong Polytechnic University - School of Professional Education and Executive Development (Hung Hom Bay Campus),"8 Hung Lok Road, Hung Hom, Kowloon",香港理工大學 - 專業進修學院 (紅磡灣校園),九龍紅磡紅樂道8號,N.A.,N.A.,N.A.,N.A.,N.A.,N.A.,N.A.,N.A.,N.A.,N.A.,818301.86077858,837063.34492459,22.30366705,114.18459308,2023-07-25 09:33:04,837063.3448999999,818301.8607999999
Higher Education Institutions,高等教育院校,The Hong Kong Polytechnic University - Hong Kong Community College (West Kowloon Campus),"9 Hoi Ting Road, Yau Ma Tei, Kowloon",香港理工大學 - 香港專上學院 (西九龍校園),九龍油麻地海庭道9號,N.A.,N.A.,N.A.,N.A.,N.A.,N.A.,N.A.,N.A.,N.A.,N.A.,819318.2,835063.4,22.31284527,114.16518309,2023-07-25 09:32:45,835063.4000000004,819318.1999999993
Higher Education Institutions,高等教育院校,Hong Kong Baptist University - School of Continuing Education,"Shaw Campus, Hong Kong Baptist University, 34 Renfrew Road, Kowloon Tong, Kowloon",香港浸會大學持續教育學院,九龍塘聯福道三十四號 香港浸會大學逸夫校園,N.A.,N.A.,N.A.,N.A.,N.A.,N.A.,N.A.,N.A.,N.A.,N.A.,822017.3,836769.4,22.33722007,114.18174156,2023-07-25 09:31:42,836769.4000000004,822017.3000000007
Higher Education Institutions,高等教育院校,Hong Kong Metropolitan University - Li Ka Shing School of Professional and Continuing Education (Lai King Campus),"201-203, Lai King Hill Road, Kwai Chung",香港都會大學 - 李嘉誠專業進修學院 (荔景校園),葵涌荔景山路201-203號,N.A.,N.A.,N.A.,N.A.,N.A.,N.A.,N.A.,N.A.,N.A.,N.A.,823096.1,831112.2,22.34695461,114.12682251,2023-07-25 09:29:44,831112.2000000002,823096.0999999996
Higher Education Institutions,高等教育院校,Lingnan Institute of Further Education,"UG01, Lau Chung Him Building, Lingnan University, Tuen Mun, Hong Kong",嶺南大學持續進修學院,香港屯門嶺南大學劉仲謙樓UG01室,N.A.,N.A.,N.A.,N.A.,N.A.,N.A.,N.A.,N.A.,N.A.,N.A.,830178.6,816437.2,22.41080633,113.98427186,2023-07-24 14:19:33,816437.2000000002,830178.5999999996
Higher Education Institutions,高等教育院校,Hong Kong Shue Yan University,"10 Wai Tsui Crescent, Braemar Hill Road, North Point",香港樹仁大學,北角寶馬山慧翠道10號,N.A.,N.A.,N.A.,N.A.,N.A.,N.A.,N.A.,N.A.,N.A.,N.A.,816381.50659493,838416.20954403,22.2863239,114.19771989,2023-07-24 14:17:45,838416.2094999999,816381.5066
Higher Education Institutions,高等教育院校,Caritas Bianchi College of Careers,"18 Chui Ling Road, Tseung Kwan O, New Territories",明愛白英奇專業學校,新界將軍澳調景嶺翠嶺路18號,N.A.,N.A.,N.A.,N.A.,N.A.,N.A.,N.A.,N.A.,N.A.,N.A.,818239.88184512,843854.88325581,22.30307382,114.25046614,2023-07-24 14:17:30,843854.8832999999,818239.8817999996
Higher Education Institutions,高等教育院校,Hong Kong Adventist College,1111 Clear Water Bay Road Sai Kung NT,香港三育書院,新界西貢清水灣道1111號,N.A.,N.A.,N.A.,N.A.,N.A.,N.A.,N.A.,N.A.,N.A.,N.A.,818706.21451538,847574.92686922,22.30728165,114.28660952,2023-07-24 14:17:14,847574.9269000003,818706.2145000007
Higher Education Institutions,高等教育院校,Hong Kong Institute of Vocational Education (Tuen Mun),"18 Tsing Wun Road, Tuen Mun, New Territories",香港專業教育學院 (屯門),新界屯門青雲路18號,N.A.,N.A.,N.A.,N.A.,N.A.,N.A.,N.A.,N.A.,N.A.,N.A.,828270.5,814595.1,22.39355304,113.96640687,2023-07-24 14:16:36,814595.0999999996,828270.5
Higher Education Institutions,高等教育院校,Hong Kong Institute of Vocational Education (Sha Tin),"21 Yuen Wo Road, Sha Tin, New Territories",香港專業教育學院 (沙田),新界沙田源禾路21號,N.A.,N.A.,N.A.,N.A.,N.A.,N.A.,N.A.,N.A.,N.A.,N.A.,827943.5,838419.9,22.39073561,114.19777129,2023-07-24 14:16:18,838419.9000000004,827943.5
Higher Education Institutions,高等教育院校,Hong Kong Institute of Vocational Education (Morrison Hill),"6 Oi Kwan Road, Wan Chai, Hong Kong",香港專業教育學院 (摩理臣山),香港灣仔愛群道6號,N.A.,N.A.,N.A.,N.A.,N.A.,N.A.,N.A.,N.A.,N.A.,N.A.,815294.1,836378.7,22.27650556,114.17794847,2023-07-24 14:15:53,836378.7000000002,815294.0999999996
Higher Education Institutions,高等教育院校,Hong Kong Institute of Vocational Education (Lee Wai Lee),"3 King Ling Road, Tseung Kwan O, New Territories",香港專業教育學院 (李惠利),新界將軍澳景嶺路3號,N.A.,N.A.,N.A.,N.A.,N.A.,N.A.,N.A.,N.A.,N.A.,N.A.,818604,844220.6,22.30637765,114.25405487,2023-07-24 14:15:39,844220.5999999996,818604
Higher Education Institutions,高等教育院校,Hong Kong Institute of Vocational Education (Kwun Tong),"25 Hiu Ming Street, Kwun Tong, Kowloon",香港專業教育學院 (觀塘),九龍觀塘曉明街25號,N.A.,N.A.,N.A.,N.A.,N.A.,N.A.,N.A.,N.A.,N.A.,N.A.,819396.4,841936,22.31354254,114.23188549,2023-07-24 14:15:26,841936,819396.4000000004
Higher Education Institutions,高等教育院校,Hong Kong Institute of Vocational Education (Kwai Chung),"20 Hing Shing Road, Kwai Chung, New Territories",香港專業教育學院 (葵涌),新界葵涌興盛路20號,N.A.,N.A.,N.A.,N.A.,N.A.,N.A.,N.A.,N.A.,N.A.,N.A.,824757,831156.5,22.36195358,114.12724726,2023-07-24 14:15:11,831156.5,824757
Higher Education Institutions,高等教育院校,Hong Kong Institute of Vocational Education (Chai Wan),"30 Shing Tai Road, Chai Wan, Hong Kong",香港專業教育學院 (柴灣),香港柴灣盛泰道30號,N.A.,N.A.,N.A.,N.A.,N.A.,N.A.,N.A.,N.A.,N.A.,N.A.,814788.9,842752.1,22.27193108,114.23978755,2023-07-24 14:14:54,842752.0999999996,814788.9000000004
Higher Education Institutions,高等教育院校,Hong Kong Institute of Vocational Education (Haking Wong),"702 Lai Chi Kok Road, Cheung Sha Wan, Kowloon",香港專業教育學院 (黃克競),九龍長沙灣荔枝角道702號,N.A.,N.A.,N.A.,N.A.,N.A.,N.A.,N.A.,N.A.,N.A.,N.A.,821814.2,833781.3,22.33538425,114.15273578,2023-07-24 14:14:36,833781.2999999998,821814.1999999993
Higher Education Institutions,高等教育院校,The Hang Seng University of Hong Kong,"Hang Shin Link, Siu Lek Yuen, Shatin, N.T., Hong Kong",香港恒生大學,香港新界沙田小瀝源行善里,N.A.,N.A.,N.A.,N.A.,N.A.,N.A.,N.A.,N.A.,N.A.,N.A.,826715.2,839821.8,22.37964109,114.21138228,2023-07-24 14:13:46,839821.7999999998,826715.1999999993
Higher Education Institutions,高等教育院校,The Education University of Hong Kong (Tai Po Campus),"10 Lo Ping Road, Tai Po, New Territories, Hong Kong",香港教育大學 (大埔校園),香港新界大埔露屏路十號,N.A.,N.A.,N.A.,N.A.,N.A.,N.A.,N.A.,N.A.,N.A.,N.A.,836629.3,838062.5,22.46917289,114.19431043,2023-07-24 14:12:54,838062.5,836629.3000000007
Higher Education Institutions,高等教育院校,Hong Kong Nang Yan College of Higher Education (Lai Chi Kok Road Building),"325-329, Lai Chi Kok Road, Shamshuipo, Kowloon",香港能仁專上學院 (荔枝角道校舍),九龍深水埗荔枝角道325至329號,N.A.,N.A.,N.A.,N.A.,N.A.,N.A.,N.A.,N.A.,N.A.,N.A.,821065.5,834532.7,22.32862397,114.16003049,2023-07-24 14:12:03,834532.7000000002,821065.5
Higher Education Institutions,高等教育院校,Hong Kong Nang Yan College of Higher Education (Yee Kuk Street Building),"176-178, Yee Kuk Street, Shamshuipo, Kowloon",香港能仁專上學院 (醫局街校舍),九龍深水埗醫局街176-178 號,N.A.,N.A.,N.A.,N.A.,N.A.,N.A.,N.A.,N.A.,N.A.,N.A.,821047.2,834526.1,22.32845871,114.15996644,2023-07-24 14:11:24,834526.0999999996,821047.1999999993
Higher Education Institutions,高等教育院校,YMCA College of Careers,"23 Waterloo Road, Kowloon",青年會專業書院,九龍窩打老道23號,N.A.,N.A.,N.A.,N.A.,N.A.,N.A.,N.A.,N.A.,N.A.,N.A.,819427.5,835700.6,22.31383264,114.17136741,2023-07-24 14:08:20,835700.5999999996,819427.5
Higher Education Institutions,高等教育院校,Centennial College,"3 Wah Lam Path, Pokfulam, Hong Kong",明德學院,香港薄扶林華林徑3號,N.A.,N.A.,N.A.,N.A.,N.A.,N.A.,N.A.,N.A.,N.A.,N.A.,812615.1,832284.5,22.25230785,114.13822906,2023-07-24 14:07:41,832284.5,812615.0999999996
Higher Education Institutions,高等教育院校,UOW College Hong Kong,"18 Che Kung Miu Road, Tai Wai, New Territories, Hong Kong",香港伍倫貢學院,香港新界大圍車公廟路18號,N.A.,N.A.,N.A.,N.A.,N.A.,N.A.,N.A.,N.A.,N.A.,N.A.,826120.0617299,836657.56072924,22.37427002,114.18065692,2023-07-24 14:06:38,836657.5607000003,826120.0616999995
Higher Education Institutions,高等教育院校,City University of Hong Kong - School of Continuing and Professional Education (TST East Learning Centre),"UG202, UG301, ChinaChem Golden Plaza, 77 Mody Road, Tsim Sha Tsui East, Kowloon",香港城市大學專業進修學院 (尖東教學中心),九龍尖沙咀東麼地道77號華懋廣場UG202及UG301室,N.A.,N.A.,N.A.,N.A.,N.A.,N.A.,N.A.,N.A.,N.A.,N.A.,817912.03865349,836518.72003329,22.30014688,114.1793075,2023-07-24 14:05:58,836518.7199999997,817912.0386999995
Higher Education Institutions,高等教育院校,Technological and Higher Education Institute of Hong Kong (Chai Wan Campus),"133 Shing Tai Road, Chai Wan, Hong Kong",香港高等教育科技學院 (柴灣校園),香港柴灣盛泰道133號,N.A.,N.A.,N.A.,N.A.,N.A.,N.A.,N.A.,N.A.,N.A.,N.A.,814565.0050035,842841.97164284,22.26990853,114.24065863,2023-07-24 14:02:29,842841.9715999998,814565.0050000008
Higher Education Institutions,高等教育院校,Technological and Higher Education Institute of Hong Kong (Tsing Yi Campus),"20A, Tsing Yi Road Tsing Yi Island New Territories",香港高等教育科技學院 (青衣校園),香港新界青衣島青衣路20A號,N.A.,N.A.,N.A.,N.A.,N.A.,N.A.,N.A.,N.A.,N.A.,N.A.,822475.8,829034.8,22.34134547,114.10665818,2023-07-24 14:01:38,829034.7999999998,822475.8000000007
Higher Education Institutions,高等教育院校,Hong Kong Institute of Vocational Education (Tsing Yi),"20 Tsing Yi Road, Tsing Yi Island, New Territories",香港專業教育學院 (青衣),新界青衣島青衣路20號,N.A.,N.A.,N.A.,N.A.,N.A.,N.A.,N.A.,N.A.,N.A.,N.A.,822630,828961.6,22.34273767,114.10594689,2023-07-24 14:00:04,828961.5999999996,822630
Higher Education Institutions,高等教育院校,Hong Kong Art School (a division of Hong Kong Arts Centre) (Shau Kei Wan Campus),"8 Tam Kung Temple Road, Shau Kei Wan, Hong Kong",香港藝術學院 (香港藝術中心附屬機構) (筲箕灣校舍),香港筲箕灣譚公廟道8號,N.A.,N.A.,N.A.,N.A.,N.A.,N.A.,N.A.,N.A.,N.A.,N.A.,815976.1,841832.8,22.28265546,114.23087199,2023-07-24 12:48:10,841832.7999999998,815976.0999999996
Higher Education Institutions,高等教育院校,Hong Kong Art School (a division of Hong Kong Arts Centre) (Chai Wan Campus),"Room 819, 8/F Youth Square, 238 Chai Wan Road, Chai Wan, Hong Kong",香港藝術學院 (香港藝術中心附屬機構) (柴灣校舍),香港柴灣道238號青年廣場8樓819室,N.A.,N.A.,N.A.,N.A.,N.A.,N.A.,N.A.,N.A.,N.A.,N.A.,813812.5,842443.9,22.26311469,114.23679343,2023-07-24 12:47:36,842443.9000000004,813812.5
Higher Education Institutions,高等教育院校,Hong Kong Baptist University - College of International Education,"4/F, David C. Lam Building, Shaw Campus, Hong Kong Baptist University, 34 Renfrew Road, Kowloon Tong",香港浸會大學國際學院,九龍塘聯福道34號香港浸會大學逸夫校園思齊樓4樓,N.A.,N.A.,N.A.,N.A.,N.A.,N.A.,N.A.,N.A.,N.A.,N.A.,822022,836773.3,22.33726252,114.18177942,2023-07-24 12:34:52,836773.2999999998,822022
Higher Education Institutions,高等教育院校,Hong Kong Baptist University - College of International Education (Shek Mun Campus),"8 On Muk Street, Shek Mun, Shatin",香港浸會大學國際學院 (石門(沙田)校園),新界沙田石門安睦街八號,N.A.,N.A.,N.A.,N.A.,N.A.,N.A.,N.A.,N.A.,N.A.,N.A.,827618.7,839709.1,22.38780039,114.2102899,2023-07-24 12:33:56,839709.0999999996,827618.6999999993
Higher Education Institutions,高等教育院校,Hong Kong Metropolitan University,"30 Good Shepherd Street, Ho Man Tin, Kowloon, HK",香港都會大學,香港九龍何文田牧愛街三十號,N.A.,N.A.,N.A.,N.A.,N.A.,N.A.,N.A.,N.A.,N.A.,N.A.,819710.1003110399,836614.86348293,22.31630227,114.18027137,2023-07-24 12:31:00,836614.8635,819710.1002999991
Higher Education Institutions,高等教育院校,Hong Kong Metropolitan University - The Jockey Club Institute of Healthcare,"1 Sheung Shing Street, Ho Man Tin, Kowloon",香港都會大學 - 賽馬會健康護理學院,九龍何文田常盛街1號,N.A.,N.A.,N.A.,N.A.,N.A.,N.A.,N.A.,N.A.,N.A.,N.A.,819818.18704631,836568.88183307,22.31736055,114.17979466,2023-07-24 12:30:38,836568.8817999996,819818.1870000008
Higher Education Institutions,高等教育院校,Hong Kong College of Technology (Mong Kok East Campus),"14 Princess Margaret Road, Homantin, Kowloon",香港專業進修學校 (旺角東校園),九龍何文田公主道14號,N.A.,N.A.,N.A.,N.A.,N.A.,N.A.,N.A.,N.A.,N.A.,N.A.,820064.35029299,836481.72059992,22.31957137,114.17899997,2023-07-24 12:28:32,836481.7205999997,820064.3502999991
Higher Education Institutions,高等教育院校,Hong Kong College of Technology (Jockey Club Ma On Shan Campus),"Yiu On Estate, 2 Hang Hong Street, Ma On Shan, Shatin, New Territories",香港專業進修學校 (賽馬會馬鞍山校園),新界沙田馬鞍山恒康街2號耀安邨‎,N.A.,N.A.,N.A.,N.A.,N.A.,N.A.,N.A.,N.A.,N.A.,N.A.,831357.8,841877.5,22.42156059,114.23135976,2023-07-24 12:27:38,841877.5,831357.8000000007
Higher Education Institutions,高等教育院校,Hong Kong Institute of Technology (Sheung Wan Learning Centre),"5/F, Well View Commercial Building, 10 Morrison Street, Sheung Wan",香港科技專上書院 (上環教學中心),上環摩利臣街10號宏基商業大廈5樓,N.A.,N.A.,N.A.,N.A.,N.A.,N.A.,N.A.,N.A.,N.A.,N.A.,816353.5,833519.4,22.28607014,114.15020285,2023-07-24 12:24:35,833519.4000000004,816353.5
Higher Education Institutions,高等教育院校,Hong Kong Institute of Technology (Tin Shui Wai Learning Centre),"Shop Nos A118 & A119, G/F Kingswood Richly Plaza Phase I, Locwood Court Kingswood Villas, No. 1 Tin Wu Road Tin Shui Wai, Yuen Long, N.T.",香港科技專上書院 (天水圍教學中心),新界天水圍天湖路1號樂湖居嘉湖新北江商場第一期地下A118及A119號舖,N.A.,N.A.,N.A.,N.A.,N.A.,N.A.,N.A.,N.A.,N.A.,N.A.,834801.9,818098.1,22.45257511,114.00035016,2023-07-24 12:23:57,818098.0999999996,834801.9000000004
Higher Education Institutions,高等教育院校,Hong Kong Institute of Technology (Kwun Tong Learning Centre),"Unit 8-10, 3/F, Prosperity Place, No. 6 Shing Yip Street, Kwun Tong, Kowloon",香港科技專上書院 (觀塘教學中心),九龍觀塘成業街6號泓富廣場3樓8-10室,N.A.,N.A.,N.A.,N.A.,N.A.,N.A.,N.A.,N.A.,N.A.,N.A.,819077.0325408099,841301.91740015,22.31056054,114.22562436,2023-07-24 12:23:20,841301.9173999997,819077.0325000007
Higher Education Institutions,高等教育院校,Hong Kong Institute of Technology,"213 Nam Cheong Street, Sham Shui Po, Kowloon",香港科技專上書院,九龍深水埗南昌街213號,N.A.,N.A.,N.A.,N.A.,N.A.,N.A.,N.A.,N.A.,N.A.,N.A.,821432.6,835095.4,22.33193957,114.16549213,2023-07-24 12:22:02,835095.4000000004,821432.5999999996
Higher Education Institutions,高等教育院校,Hong Kong Institute of Technology (Tseung Kwan O Learning Centre),"Shop G30, Ground Floor, The Metropolis, Metro City Phase 3, 8 Mau Yip Road, Tseung Kwan O, N.T.",香港科技專上書院 (將軍澳教學中心),將軍澳貿業路8號新都城三期地下G30號舖,N.A.,N.A.,N.A.,N.A.,N.A.,N.A.,N.A.,N.A.,N.A.,N.A.,820402.2,844539.4,22.32261496,114.25715813,2023-07-24 12:21:32,844539.4000000004,820402.1999999993
Higher Education Institutions,高等教育院校,Hong Kong Institute of Technology (Cheung Sha Wan Learning Centre),"No. 638, Cheung Sha Wan Road, Cheung Sha Wan, Kowloon, HK",香港科技專上書院 (長沙灣教學中心),九龍長沙灣長沙灣道638號,N.A.,N.A.,N.A.,N.A.,N.A.,N.A.,N.A.,N.A.,N.A.,N.A.,822164.7,833761.8,22.33854944,114.15254595,2023-07-24 12:20:44,833761.7999999998,822164.6999999993
Higher Education Institutions,高等教育院校,Hong Kong Institute of Technology (Tsuen Wan Learning Centre),"Shop Nos UG17-UG20, UG/F., Waterside Plaza, 38 Wing Shun Street, Tsuen Wan, New Territories",香港科技專上書院 (荃灣教學中心),新界荃灣永順街38號海灣花園購物商場地下上層17-20號舖,N.A.,N.A.,N.A.,N.A.,N.A.,N.A.,N.A.,N.A.,N.A.,N.A.,825027.4,829753.9,22.3643907,114.11362844,2023-07-24 12:20:02,829753.9000000004,825027.4000000004
Higher Education Institutions,高等教育院校,Hong Kong Institute of Technology (Wong Tai Sin Learning Centre),"Shop 108&109, 1/F., Lions Rise Mall, 8 Muk Lun Street, Wong Tai Sin, Kowloon",香港科技專上書院 (黃大仙教學中心),九龍黃大仙睦鄰街8號現祟山商場1樓108及109號鋪,N.A.,N.A.,N.A.,N.A.,N.A.,N.A.,N.A.,N.A.,N.A.,N.A.,822383.90339031,838336.4881122099,22.34052924,114.19695407,2023-07-24 12:19:21,838336.4880999997,822383.9034000002
Higher Education Institutions,高等教育院校,Hong Kong Institute of Technology (Tuen Mun Learning Centre),"Shop 76-80, Level 2, Sun Tuen Mun Shopping Centre, 55-65 Lung Mun Road, Tuen Mun, New Territories",香港科技專上書院 (屯門教學中心),新界屯門龍門路55-65號新屯門商場第二層76-80號舖,N.A.,N.A.,N.A.,N.A.,,,N.A.,N.A.,N.A.,N.A.,826904.13261074,814452.1759784,22.38119276,113.96504564,2023-07-24 12:18:30,814452.176,826904.1326000001
Higher Education Institutions,高等教育院校,"School of Continuing and Professional Studies, The Chinese University of Hong Kong (Head Office)","6/F, Railway Plaza, 39 Chatham Road South, Tsim Sha Tsui",香港中文大學專業進修學院 (總辦事處),尖沙咀漆咸道南 39 號鐵路大廈 6 樓,N.A.,N.A.,N.A.,N.A.,N.A.,N.A.,N.A.,N.A.,N.A.,N.A.,817732.0594876,836287.0456037,22.29852158,114.17705918,2023-07-24 12:14:36,836287.0455999998,817732.0594999995
Higher Education Institutions,高等教育院校,"School of Continuing and Professional Studies, The Chinese University of Hong Kong (East Ocean Learning Centre)","Rooms 300A, 308 and Unite 01, Basement 1, East Ocean Centre, 98 Granville Road, Tsim Sha Tsui",香港中文大學專業進修學院 (東海教學中心),尖沙咀加連威老道 98 號 東海商業中心300A室、308室及地庫1樓01室,N.A.,N.A.,N.A.,N.A.,N.A.,N.A.,N.A.,N.A.,N.A.,N.A.,817948.6,836359.7,22.30047736,114.17776427,2023-07-24 12:12:55,836359.7000000002,817948.5999999996
Higher Education Institutions,高等教育院校,"School of Continuing and Professional Studies, The Chinese University of Hong Kong (Oriental Learning Centre)","8/F, 13/F, 14/F and 17/F, Oriental Centre, 67 Chatham Road South, Tsim Sha Tsui",香港中文大學專業進修學院 (安年教學中心),尖沙咀漆咸道南 67 號安年大廈 8樓、13 樓、14樓及17樓,N.A.,N.A.,N.A.,N.A.,N.A.,N.A.,N.A.,N.A.,N.A.,N.A.,817909.2,836152.3,22.30012156,114.17575153,2023-07-24 12:12:09,836152.2999999998,817909.1999999993
Higher Education Institutions,高等教育院校,"School of Continuing and Professional Studies, The Chinese University of Hong Kong (Central Learning Centre)","Unit A, 1/F, Bank of America Tower, 12 Harcourt Road, Central",香港中文大學專業進修學院 (中環教學中心),中環夏愨道 12 號美國銀行中心 1 樓 A,N.A.,N.A.,N.A.,N.A.,N.A.,N.A.,N.A.,N.A.,N.A.,N.A.,815776.9,834833.8,22.28086496,114.16295786,2023-07-24 12:10:41,834833.7999999998,815776.9000000004
Higher Education Institutions,高等教育院校,HKU SPACE Community College (Island South (Pokfulam) Campus),"3 Wah Lam Path, Pokfulam, Hong Kong",香港大學附屬學院 (港島南分校),香港薄扶林華林徑3號,N.A.,N.A.,N.A.,N.A.,N.A.,N.A.,N.A.,N.A.,N.A.,N.A.,812612.20563757,832302.59090104,22.25228147,114.13840457,2023-07-24 12:07:30,832302.5909000002,812612.2056000009
Higher Education Institutions,高等教育院校,HKU SPACE Community College (Admiralty Learning Centre ),"Admiralty Centre, 18 Harcourt Road, Hong Kong",香港大學附屬學院 (金鐘教學中心),香港金鐘夏慤道18號海富中心,N.A.,N.A.,N.A.,N.A.,N.A.,N.A.,N.A.,N.A.,N.A.,N.A.,815598.6,835074.3,22.27925498,114.16529164,2023-07-24 12:05:45,835074.2999999998,815598.5999999996
Higher Education Institutions,高等教育院校,HKU SPACE Community College (Fortress Tower Learning Centre),"Fortress Tower, 250 King's Road, North Point, Hong Kong",香港大學附屬學院 (北角城教學中心),香港北角英皇道250號北角城中心,N.A.,N.A.,N.A.,N.A.,N.A.,N.A.,N.A.,N.A.,N.A.,N.A.,816659.9,838062.5,22.28883867,114.19428792,2023-07-24 12:05:14,838062.5,816659.9000000004
Higher Education Institutions,高等教育院校,HKU SPACE Community College (Island East Campus),"494 King's Road, North Point, Hong Kong",香港大學附屬學院 (港島東分校),香港北角英皇道494號,N.A.,N.A.,N.A.,N.A.,N.A.,N.A.,N.A.,N.A.,N.A.,N.A.,816931.7,838838.4,22.29129221,114.20181758,2023-07-24 12:03:35,838838.4000000004,816931.6999999993
Higher Education Institutions,高等教育院校,HKU SPACE Community College (Kowloon West Campus),"NCB Innovation Centre, 888 Lai Chi Kok Road, Cheung Sha Wan, Kowloon",香港大學附屬學院 (九龍西分校),九龍長沙灣荔枝角道888號南商金融創新中心,N.A.,N.A.,N.A.,N.A.,N.A.,N.A.,N.A.,N.A.,N.A.,N.A.,821829.3498739999,833078.96663934,22.33551961,114.14591815,2023-07-24 12:02:11,833078.9665999999,821829.3498999998
Higher Education Institutions,高等教育院校,Tung Wah College (King’s Park Campus),"31 Wylie Road, Homantin, Kowloon, Hong Kong",東華學院 (京士柏校舍),九龍何文田衛理道31號,N.A.,N.A.,N.A.,N.A.,N.A.,N.A.,N.A.,N.A.,N.A.,N.A.,819301.2,836146.1,22.31269216,114.17569126,2023-07-24 11:58:24,836146.0999999996,819301.1999999993
Higher Education Institutions,高等教育院校,Tung Wah College (Mong Kok Campus),"90A & 98, Shantung Street, Mongkok, Kowloon",東華學院 (旺角校舍),九龍旺角山東街90號A及98號,N.A.,N.A.,N.A.,N.A.,N.A.,N.A.,N.A.,N.A.,N.A.,N.A.,819883.59841515,835875.75646236,22.31795124,114.17306729,2023-07-24 11:57:33,835875.7565000001,819883.5984000005
Higher Education Institutions,高等教育院校,Tung Wah College (Kwai Hing Campus),"Level 16, Tower B, Kowloon Commerce Centre, No. 51 Kwai Cheong Road, Kwai Chung, New Territories",東華學院 (葵興校舍),新界葵涌葵昌路51號九龍貿易中心第二座16樓,N.A.,N.A.,N.A.,N.A.,N.A.,N.A.,N.A.,N.A.,N.A.,N.A.,824767.63391888,831725.4316209001,22.36205092,114.13277093,2023-07-24 11:56:49,831725.4315999998,824767.6338999998
